CCSDS_OMM_VERS = 2.0
CREATION_DATE  = 
ORIGINATOR     = 

OBJECT_NAME    = IDEFIX & ARIANE 42P R/B
OBJECT_ID      = 2002-021B
CENTER_NAME    = EARTH
REF_FRAME      = TEME
TIME_SYSTEM    = UTC
MEAN_ELEMENT_THEORY = SGP/SGP4

EPOCH          = 2026-03-05T17:17:03.676416
MEAN_MOTION    = 14.31022919
ECCENTRICITY   = .0011343
INCLINATION    = 98.5866
RA_OF_ASC_NODE = 3.3740
ARG_OF_PERICENTER = 194.0725
MEAN_ANOMALY   = 166.0144

EPHEMERIS_TYPE = 0
CLASSIFICATION_TYPE = U
NORAD_CAT_ID   = 27422
ELEMENT_SET_NO = 999
REV_AT_EPOCH   = 24345
BSTAR          = .17513338E-3
MEAN_MOTION_DOT = .417E-5
MEAN_MOTION_DDOT = 0

CCSDS_OMM_VERS = 2.0
CREATION_DATE  = 
ORIGINATOR     = 

OBJECT_NAME    = AQUA
OBJECT_ID      = 2002-022A
CENTER_NAME    = EARTH
REF_FRAME      = TEME
TIME_SYSTEM    = UTC
MEAN_ELEMENT_THEORY = SGP/SGP4

EPOCH          = 2026-03-05T22:09:34.338240
MEAN_MOTION    = 14.61965399
ECCENTRICITY   = .00005994
INCLINATION    = 98.4170
RA_OF_ASC_NODE = 32.2197
ARG_OF_PERICENTER = 63.3663
MEAN_ANOMALY   = 13.6411

EPHEMERIS_TYPE = 0
CLASSIFICATION_TYPE = U
NORAD_CAT_ID   = 27424
ELEMENT_SET_NO = 999
REV_AT_EPOCH   = 26818
BSTAR          = .277648E-3
MEAN_MOTION_DOT = .1342E-4
MEAN_MOTION_DDOT = 0

CCSDS_OMM_VERS = 2.0
CREATION_DATE  = 
ORIGINATOR     = 

OBJECT_NAME    = CZ-4B R/B
OBJECT_ID      = 2002-024C
CENTER_NAME    = EARTH
REF_FRAME      = TEME
TIME_SYSTEM    = UTC
MEAN_ELEMENT_THEORY = SGP/SGP4

EPOCH          = 2026-03-05T18:25:14.605824
MEAN_MOTION    = 14.14546933
ECCENTRICITY   = .00506675
INCLINATION    = 98.8846
RA_OF_ASC_NODE = 118.1938
ARG_OF_PERICENTER = 35.2596
MEAN_ANOMALY   = 74.8182

EPHEMERIS_TYPE = 0
CLASSIFICATION_TYPE = U
NORAD_CAT_ID   = 27432
ELEMENT_SET_NO = 999
REV_AT_EPOCH   = 22868
BSTAR          = .60567933E-4
MEAN_MOTION_DOT = .73E-6
MEAN_MOTION_DDOT = 0

CCSDS_OMM_VERS = 2.0
CREATION_DATE  = 
ORIGINATOR     = 

OBJECT_NAME    = MIDORI II (ADEOS-II)
OBJECT_ID      = 2002-056A
CENTER_NAME    = EARTH
REF_FRAME      = TEME
TIME_SYSTEM    = UTC
MEAN_ELEMENT_THEORY = SGP/SGP4

EPOCH          = 2026-03-05T21:12:08.913600
MEAN_MOTION    = 14.29281347
ECCENTRICITY   = .00017301
INCLINATION    = 98.7765
RA_OF_ASC_NODE = 23.3348
ARG_OF_PERICENTER = 47.9802
MEAN_ANOMALY   = 312.1527

EPHEMERIS_TYPE = 0
CLASSIFICATION_TYPE = U
NORAD_CAT_ID   = 27597
ELEMENT_SET_NO = 999
REV_AT_EPOCH   = 20975
BSTAR          = .16594295E-3
MEAN_MOTION_DOT = .377E-5
MEAN_MOTION_DDOT = 0

CCSDS_OMM_VERS = 2.0
CREATION_DATE  = 
ORIGINATOR     = 

OBJECT_NAME    = H-2A R/B
OBJECT_ID      = 2002-056E
CENTER_NAME    = EARTH
REF_FRAME      = TEME
TIME_SYSTEM    = UTC
MEAN_ELEMENT_THEORY = SGP/SGP4

EPOCH          = 2026-03-05T20:49:38.846208
MEAN_MOTION    = 14.33757912
ECCENTRICITY   = .00702698
INCLINATION    = 98.3197
RA_OF_ASC_NODE = 25.3790
ARG_OF_PERICENTER = 172.0112
MEAN_ANOMALY   = 242.7391

EPHEMERIS_TYPE = 0
CLASSIFICATION_TYPE = U
NORAD_CAT_ID   = 27601
ELEMENT_SET_NO = 999
REV_AT_EPOCH   = 21356
BSTAR          = .14984844E-3
MEAN_MOTION_DOT = .386E-5
MEAN_MOTION_DDOT = 0

CCSDS_OMM_VERS = 2.0
CREATION_DATE  = 
ORIGINATOR     = 

OBJECT_NAME    = CZ-4B R/B
OBJECT_ID      = 2003-049C
CENTER_NAME    = EARTH
REF_FRAME      = TEME
TIME_SYSTEM    = UTC
MEAN_ELEMENT_THEORY = SGP/SGP4

EPOCH          = 2026-03-05T22:40:58.699776
MEAN_MOTION    = 14.55015715
ECCENTRICITY   = .00471251
INCLINATION    = 98.6876
RA_OF_ASC_NODE = 59.7030
ARG_OF_PERICENTER = 242.5758
MEAN_ANOMALY   = 117.0641

EPHEMERIS_TYPE = 0
CLASSIFICATION_TYPE = U
NORAD_CAT_ID   = 28059
ELEMENT_SET_NO = 999
REV_AT_EPOCH   = 18605
BSTAR          = .12292925E-3
MEAN_MOTION_DOT = .485E-5
MEAN_MOTION_DDOT = 0

CCSDS_OMM_VERS = 2.0
CREATION_DATE  = 
ORIGINATOR     = 

OBJECT_NAME    = CZ-2C R/B
OBJECT_ID      = 2004-012C
CENTER_NAME    = EARTH
REF_FRAME      = TEME
TIME_SYSTEM    = UTC
MEAN_ELEMENT_THEORY = SGP/SGP4

EPOCH          = 2026-03-05T16:57:53.787456
MEAN_MOTION    = 15.63957570
ECCENTRICITY   = .00132604
INCLINATION    = 97.7239
RA_OF_ASC_NODE = 129.6238
ARG_OF_PERICENTER = 325.7396
MEAN_ANOMALY   = 34.3005

EPHEMERIS_TYPE = 0
CLASSIFICATION_TYPE = U
NORAD_CAT_ID   = 28222
ELEMENT_SET_NO = 999
REV_AT_EPOCH   = 20365
BSTAR          = .63752945E-3
MEAN_MOTION_DOT = .60471E-3
MEAN_MOTION_DDOT = 0

CCSDS_OMM_VERS = 2.0
CREATION_DATE  = 
ORIGINATOR     = 

OBJECT_NAME    = SL-16 R/B
OBJECT_ID      = 2004-021B
CENTER_NAME    = EARTH
REF_FRAME      = TEME
TIME_SYSTEM    = UTC
MEAN_ELEMENT_THEORY = SGP/SGP4

EPOCH          = 2026-03-05T22:06:47.721024
MEAN_MOTION    = 14.14599085
ECCENTRICITY   = .00038228
INCLINATION    = 70.9992
RA_OF_ASC_NODE = 240.4008
ARG_OF_PERICENTER = 16.5605
MEAN_ANOMALY   = 343.5641

EPHEMERIS_TYPE = 0
CLASSIFICATION_TYPE = U
NORAD_CAT_ID   = 28353
ELEMENT_SET_NO = 999
REV_AT_EPOCH   = 12230
BSTAR          = -.80853622E-4
MEAN_MOTION_DOT = -.203E-5
MEAN_MOTION_DDOT = 0

CCSDS_OMM_VERS = 2.0
CREATION_DATE  = 
ORIGINATOR     = 

OBJECT_NAME    = CZ-4B R/B
OBJECT_ID      = 2004-035C
CENTER_NAME    = EARTH
REF_FRAME      = TEME
TIME_SYSTEM    = UTC
MEAN_ELEMENT_THEORY = SGP/SGP4

EPOCH          = 2026-03-05T23:35:00.419136
MEAN_MOTION    = 15.28982464
ECCENTRICITY   = .00313783
INCLINATION    = 97.3498
RA_OF_ASC_NODE = 99.2692
ARG_OF_PERICENTER = 345.0282
MEAN_ANOMALY   = 15.0026

EPHEMERIS_TYPE = 0
CLASSIFICATION_TYPE = U
NORAD_CAT_ID   = 28415
ELEMENT_SET_NO = 999
REV_AT_EPOCH   = 17934
BSTAR          = .32748923E-3
MEAN_MOTION_DOT = .928E-4
MEAN_MOTION_DDOT = 0

CCSDS_OMM_VERS = 2.0
CREATION_DATE  = 
ORIGINATOR     = 

OBJECT_NAME    = CZ-2C R/B
OBJECT_ID      = 2004-046B
CENTER_NAME    = EARTH
REF_FRAME      = TEME
TIME_SYSTEM    = UTC
MEAN_ELEMENT_THEORY = SGP/SGP4

EPOCH          = 2026-03-05T16:46:46.512480
MEAN_MOTION    = 14.26990485
ECCENTRICITY   = .01396514
INCLINATION    = 98.1986
RA_OF_ASC_NODE = 339.9313
ARG_OF_PERICENTER = 166.2060
MEAN_ANOMALY   = 194.3000

EPHEMERIS_TYPE = 0
CLASSIFICATION_TYPE = U
NORAD_CAT_ID   = 28480
ELEMENT_SET_NO = 999
REV_AT_EPOCH   = 10793
BSTAR          = .7444694E-4
MEAN_MOTION_DOT = .16E-5
MEAN_MOTION_DDOT = 0

CCSDS_OMM_VERS = 2.0
CREATION_DATE  = 
ORIGINATOR     = 

OBJECT_NAME    = ARIANE 5 R/B
OBJECT_ID      = 2004-049H
CENTER_NAME    = EARTH
REF_FRAME      = TEME
TIME_SYSTEM    = UTC
MEAN_ELEMENT_THEORY = SGP/SGP4

EPOCH          = 2026-03-05T22:15:27.871488
MEAN_MOTION    = 14.85257079
ECCENTRICITY   = .00842046
INCLINATION    = 98.2620
RA_OF_ASC_NODE = 233.2437
ARG_OF_PERICENTER = 4.1334
MEAN_ANOMALY   = 356.0557

EPHEMERIS_TYPE = 0
CLASSIFICATION_TYPE = U
NORAD_CAT_ID   = 28499
ELEMENT_SET_NO = 999
REV_AT_EPOCH   = 14523
BSTAR          = .1097913E-3
MEAN_MOTION_DOT = .939E-5
MEAN_MOTION_DDOT = 0

CCSDS_OMM_VERS = 2.0
CREATION_DATE  = 
ORIGINATOR     = 

OBJECT_NAME    = CZ-2D R/B
OBJECT_ID      = 2005-024B
CENTER_NAME    = EARTH
REF_FRAME      = TEME
TIME_SYSTEM    = UTC
MEAN_ELEMENT_THEORY = SGP/SGP4

EPOCH          = 2026-03-05T23:43:57.196416
MEAN_MOTION    = 15.59754184
ECCENTRICITY   = .00063543
INCLINATION    = 97.3594
RA_OF_ASC_NODE = 79.9995
ARG_OF_PERICENTER = 56.6913
MEAN_ANOMALY   = 303.4952

EPHEMERIS_TYPE = 0
CLASSIFICATION_TYPE = U
NORAD_CAT_ID   = 28738
ELEMENT_SET_NO = 999
REV_AT_EPOCH   = 13920
BSTAR          = .53104195E-3
MEAN_MOTION_DOT = .42575E-3
MEAN_MOTION_DDOT = 0

